H1 CPF 01  gfz 2021 06 13 00  6641 tandemx   
H2 1003001  6202 36605    2021 06 13 00 59 42 2021 06 18 00 00 42   120 1 1  0 0 0
H9
10 0 59378  69822.000000  0   -4008671.775   2224636.060  -5149301.448
10 0 59378  69942.000000  0   -3287790.879   2066050.425  -5697390.444
10 0 59378  70062.000000  0   -2513063.039   1858527.055  -6145911.019
10 0 59378  70182.000000  0   -1698801.640   1604878.800  -6487119.612
10 0 59378  70302.000000  0    -859916.556   1308961.735  -6715138.117
10 0 59378  70422.000000  0     -11644.615    975615.941  -6826044.171
10 0 59378  70542.000000  0     830720.451    610587.291  -6817930.635
10 0 59378  70662.000000  0    1652096.985    220430.606  -6690937.132
10 0 59378  70782.000000  0    2437880.183   -187605.569  -6447247.337
10 0 59378  70902.000000  0    3174196.056   -605709.554  -6091055.711
10 0 59378  71022.000000  0    3848143.810  -1025651.581  -5628502.266
10 0 59378  71142.000000  0    4448020.839  -1438940.601  -5067577.253
10 0 59378  71262.000000  0    4963530.375  -1836992.472  -4417995.414
10 0 59378  71382.000000  0    5385965.236  -2211305.222  -3691038.444
10 0 59378  71502.000000  0    5708364.538  -2553637.757  -2899368.256
10 0 59378  71622.000000  0    5925639.409  -2856188.605  -2056812.079
10 0 59378  71742.000000  0    6034663.249  -3111770.256  -1178122.885
10 0 59378  71862.000000  0    6034324.750  -3313974.817   -278720.038
10 0 59378  71982.000000  0    5925541.174  -3457327.015    625586.075
10 0 59378  72102.000000  0    5711231.544  -3537420.460   1518878.917
10 0 59378  72222.000000  0    5396248.635  -3551032.815   2385426.372
10 0 59378  72342.000000  0    4987270.051  -3496215.912   3209966.214
10 0 59378  72462.000000  0    4492654.648  -3372359.792   3977981.957
10 0 59378  72582.000000  0    3922267.544  -3180228.539   4675962.702
10 0 59378  72702.000000  0    3287276.941  -2921968.969   5291644.117
10 0 59378  72822.000000  0    2599927.465  -2601089.283   5814222.788
10 0 59378  72942.000000  0    1873298.110  -2222410.176   6234542.055
10 0 59378  73062.000000  0    1121048.485  -1791990.266   6545247.038
10 0 59378  73182.000000  0     357158.935  -1317026.713   6740907.353
10 0 59378  73302.000000  0    -404330.407   -805732.761   6818106.176
10 0 59378  73422.000000  0   -1149577.092   -267194.718   6775495.451
10 0 59378  73542.000000  0   -1865186.817    288789.242   6613817.856
10 0 59378  73662.000000  0   -2538453.279    851886.867   6335894.798
10 0 59378  73782.000000  0   -3157583.998   1411422.892   5946580.536
10 0 59378  73902.000000  0   -3711908.735   1956580.541   5452683.084
10 0 59378  74022.000000  0   -4192067.914   2476610.855   4862851.971
10 0 59378  74142.000000  0   -4590176.847   2961046.464   4187432.436
10 0 59378  74262.000000  0   -4899961.859   3399913.713   3438287.216
10 0 59378  74382.000000  0   -5116864.987   3783940.078   2628590.272
10 0 59378  74502.000000  0   -5238115.678   4104752.359   1772594.859
10 0 59378  74622.000000  0   -5262767.571   4355060.551    885378.566
10 0 59378  74742.000000  0   -5191697.105   4528821.446    -17429.762
10 0 59378  74862.000000  0   -5027565.385   4621377.679   -919932.994
10 0 59378  74982.000000  0   -4774744.406   4629570.613  -1806255.284
10 0 59378  75102.000000  0   -4439207.381   4551822.001  -2660830.899
10 0 59378  75222.000000  0   -4028387.819   4388181.764  -3468684.231
10 0 59378  75342.000000  0   -3551010.941   4140342.640  -4215694.998
10 0 59378  75462.000000  0   -3016903.183   3811622.078  -4888842.980
10 0 59378  75582.000000  0   -2436785.848   3406912.795  -5476428.380
10 0 59378  75702.000000  0   -1822057.820   2932604.837  -5968267.172
10 0 59378  75822.000000  0   -1184569.697   2396478.680  -6355858.085
10 0 59378  75942.000000  0    -536395.711   1807572.720  -6632517.520
10 0 59378  76062.000000  0     110391.832   1176029.559  -6793483.467
10 0 59378  76182.000000  0     743941.849    512922.468  -6835988.621
10 0 59378  76302.000000  0    1352836.822   -169934.941  -6759304.137
10 0 59378  76422.000000  0    1926294.144   -860195.089  -6564749.525
10 0 59378  76542.000000  0    2454352.051  -1545193.677  -6255671.963
10 0 59378  76662.000000  0    2928040.261  -2212176.077  -5837395.022
10 0 59378  76782.000000  0    3339532.042  -2848529.876  -5317137.844
10 0 59378  76902.000000  0    3682277.154  -3442023.369  -4703902.215
10 0 59378  77022.000000  0    3951109.439  -3981041.324  -4008325.768
10 0 59378  77142.000000  0    4142328.594  -4454813.907  -3242507.985
10 0 59378  77262.000000  0    4253756.020  -4853636.537  -2419808.249
10 0 59378  77382.000000  0    4284761.736  -5169074.960  -1554617.045
10 0 59378  77502.000000  0    4236259.158  -5394149.554   -662103.849
10 0 59378  77622.000000  0    4110669.100  -5523492.862    242052.769
10 0 59378  77742.000000  0    3911852.459  -5553477.002   1141947.034
10 0 59378  77862.000000  0    3645013.880  -5482306.922   2021734.818
10 0 59378  77982.000000  0    3316576.958  -5310075.252   2865922.051
10 0 59378  78102.000000  0    2934035.403  -5038780.086   3659644.681
10 0 59378  78222.000000  0    2505784.786  -4672303.696   4388936.333
10 0 59378  78342.000000  0    2040938.969  -4216353.539   5040977.438
10 0 59378  78462.000000  0    1549135.330  -3678367.035   5604320.940
10 0 59378  78582.000000  0    1040333.599  -3067382.671   6069091.567
10 0 59378  78702.000000  0     524612.374  -2393880.637   6427153.540
10 0 59378  78822.000000  0      11969.024  -1669597.853   6672246.023
10 0 59378  78942.000000  0    -487873.171   -907320.867   6800086.467
10 0 59378  79062.000000  0    -965648.234   -120658.337   6808441.942
10 0 59378  79182.000000  0   -1412718.462    676202.408   6697165.495
10 0 59378  79302.000000  0   -1821230.130   1468750.737   6468198.281
10 0 59378  79422.000000  0   -2184251.634   2242416.005   6125537.842
10 0 59378  79542.000000  0   -2495892.010   2982835.332   5675172.668
10 0 59378  79662.000000  0   -2751397.739   3676121.684   5124983.527
10 0 59378  79782.000000  0   -2947227.615   4309127.981   4484612.457
10 0 59378  79902.000000  0   -3081102.859   4869702.362   3765298.857
10 0 59378  80022.000000  0   -3152031.213   5346929.126   2979685.135
10 0 59378  80142.000000  0   -3160304.080   5731348.911   2141594.160
10 0 59378  80262.000000  0   -3107467.282   6015152.628   1265783.329
10 0 59378  80382.000000  0   -2996265.290   6192345.435    367680.040
10 0 59378  80502.000000  0   -2830560.397   6258876.519   -536897.499
10 0 59378  80622.000000  0   -2615229.490   6212730.122  -1432028.503
10 0 59378  80742.000000  0   -2356039.258   6053974.124  -2301981.404
10 0 59378  80862.000000  0   -2059502.528   5784763.101  -3131497.856
10 0 59378  80982.000000  0   -1732722.735   5409302.240  -3906062.487
10 0 59378  81102.000000  0   -1383230.238   4933771.353  -4612157.307
10 0 59378  81222.000000  0   -1018814.248   4366211.384  -5237493.177
10 0 59378  81342.000000  0    -647354.246   3716378.812  -5771216.754
10 0 59378  81462.000000  0    -276653.694   2995569.054  -6204090.564
10 0 59378  81582.000000  0      85719.889   2216412.724  -6528641.729
10 0 59378  81702.000000  0     432584.433   1392651.917  -6739278.806
10 0 59378  81822.000000  0     757280.943    538899.067  -6832379.237
10 0 59378  81942.000000  0    1053797.674   -329618.515  -6806344.672
10 0 59378  82062.000000  0    1316878.056  -1197325.065  -6661624.552
10 0 59378  82182.000000  0    1542111.179  -2048568.121  -6400707.808
10 0 59378  82302.000000  0    1726004.736  -2867893.126  -6028085.434
10 0 59378  82422.000000  0    1866039.281  -3640319.324  -5550183.060
10 0 59378  82542.000000  0    1960702.236  -4351614.267  -4975261.007
10 0 59378  82662.000000  0    2009501.206  -4988557.424  -4313281.038
10 0 59378  82782.000000  0    2012956.592  -5539190.209  -3575745.055
10 0 59378  82902.000000  0    1972572.913  -5993049.590  -2775504.589
10 0 59378  83022.000000  0    1890788.533  -6341378.316  -1926542.680
10 0 59378  83142.000000  0    1770904.884  -6577304.665  -1043730.692
10 0 59378  83262.000000  0    1616997.768  -6695989.473   -142566.572
10 0 59378  83382.000000  0    1433811.589  -6694732.710    761104.321
10 0 59378  83502.000000  0    1226638.661  -6573038.451   1651374.055
10 0 59378  83622.000000  0    1001187.039  -6332636.422   2512562.879
10 0 59378  83742.000000  0     763440.619  -5977455.507   3329504.425
10 0 59378  83862.000000  0     519513.613  -5513554.244   4087819.284
10 0 59378  83982.000000  0     275505.038  -4949009.956   4774171.937
10 0 59378  84102.000000  0      37355.919  -4293768.759   5376506.979
10 0 59378  84222.000000  0    -189286.754  -3559460.271   5884259.628
10 0 59378  84342.000000  0    -399196.096  -2759181.144   6288537.539
10 0 59378  84462.000000  0    -587679.773  -1907253.818   6582269.161
10 0 59378  84582.000000  0    -750680.037  -1018967.249   6760320.763
10 0 59378  84702.000000  0    -884857.764   -110300.913   6819582.181
10 0 59378  84822.000000  0    -987659.489    802363.634   6759018.294
10 0 59378  84942.000000  0   -1057365.384   1702537.900   6579685.743
10 0 59378  85062.000000  0   -1093117.685   2573923.718   6284715.520
10 0 59378  85182.000000  0   -1094929.918   3400708.382   5879261.849
10 0 59378  85302.000000  0   -1063676.634   4167853.649   5370417.204
10 0 59378  85422.000000  0   -1001062.853   4861373.004   4767094.306
10 0 59378  85542.000000  0    -909575.361   5468594.088   4079875.907
10 0 59378  85662.000000  0    -792414.923   5978398.191   3320832.055
10 0 59378  85782.000000  0    -653413.040   6381433.522   2503312.320
10 0 59378  85902.000000  0    -496933.193   6670299.458   1641708.228
10 0 59378  86022.000000  0    -327757.628   6839689.778    751194.310
10 0 59378  86142.000000  0    -150964.545   6886495.735   -152545.562
10 0 59378  86262.000000  0      28201.811   6809866.456  -1053602.820
99
